{
  metar: [
    { airport: '', wx: 'Last updated Thu May 16 20:56:02 UTC 2024' },
    {
      airport: 'ESCF',
      wx: '162050Z AUTO 09005KT 9999 NCD 13/03 Q1023='
    },
    {
      airport: 'ESCM',
      wx: '162050Z AUTO 22007KT 9999 NCD 15/07 Q1024='
    },
    { airport: 'ESDF', wx: '162050Z 08008KT CAVOK 12/04 Q1020=' },
    { airport: 'ESGG', wx: '162050Z 12009KT CAVOK 15/02 Q1020=' },
    { airport: 'ESGJ', wx: '162050Z 11005KT CAVOK 13/04 Q1021=' },
    {
      airport: 'ESGT',
      wx: '162050Z AUTO 10010KT 9999 NCD 16/02 Q1020='
    },
    {
      airport: 'ESGP',
      wx: '162050Z AUTO 13008KT 9999 NCD 17/03 Q1019='
    },
    {
      airport: 'ESIA',
      wx: '162050Z AUTO 11007KT 9999 NCD 12/05 Q1022='
    },
    {
      airport: 'ESIB',
      wx: '162050Z AUTO 11010KT 9999 NCD 15/02 Q1020='
    },
    {
      airport: 'ESKM',
      wx: '162050Z AUTO 20004KT 160V220 9999 NCD 17/06 Q1022='
    },
    { airport: 'ESKN', wx: '162050Z 07002KT CAVOK 10/07 Q1024=' },
    {
      airport: 'ESKS',
      wx: '162020Z AUTO 07003KT 9999 NCD 12/04 Q1022='
    },
    {
      airport: 'ESMK',
      wx: '162050Z AUTO VRB03KT 9999 NCD 11/06 Q1019='
    },
    {
      airport: 'ESMQ',
      wx: '162050Z AUTO 08009KT 9999 ///////// 12/06 Q1022='
    },
    { airport: 'ESMS', wx: '162050Z 08011KT CAVOK 13/05 Q1016=' },
    {
      airport: 'ESMT',
      wx: '162050Z AUTO 08009KT 060V120 9999 NCD 14/03 Q1019='
    },
    { airport: 'ESMX', wx: '162050Z VRB03KT CAVOK 12/04 Q1021=' },
    {
      airport: 'ESND',
      wx: '162050Z AUTO 07001KT 9999 NCD 13/04 Q1021='
    },
    {
      airport: 'ESNG',
      wx: '162050Z AUTO 19003KT 160V220 9999 OVC080/// 11/03 Q1021='
    },
    {
      airport: 'ESNK',
      wx: '162050Z AUTO 17003KT 120V190 9999 NCD 12/07 Q1022='
    },
    {
      airport: 'ESNL',
      wx: '162050Z AUTO 13007KT 9999 NCD 13/08 Q1022='
    },
    { airport: 'ESNN', wx: '162050Z VRB01KT CAVOK 09/07 Q1022=' },
    { airport: 'ESNO', wx: '162050Z VRB02KT CAVOK 09/05 Q1023=' },
    {
      airport: 'ESNQ',
      wx: '162050Z AUTO 21008KT 9999 NCD 07/01 Q1020='
    },
    { airport: 'ESNS', wx: '162050Z VRB01KT CAVOK 09/07 Q1023=' },
    { airport: 'ESNU', wx: '162050Z 04003KT CAVOK 09/02 Q1023=' },
    {
      airport: 'ESNV',
      wx: '162050Z AUTO VRB01KT 9999 BKN087/// 11/06 Q1021='
    },
    {
      airport: 'ESNX',
      wx: '162050Z AUTO 17002KT 9999 BKN098/// 12/07 Q1022='
    },
    { airport: 'ESNZ', wx: '162050Z 12011KT CAVOK 18/08 Q1019=' },
    {
      airport: 'ESOE',
      wx: '162050Z 12004KT 080V150 CAVOK 15/03 Q1023='
    },
    {
      airport: 'ESOK',
      wx: '162050Z AUTO 13004KT 100V160 9999 NCD 16/04 Q1022='
    },
    {
      airport: 'ESOH',
      wx: '162050Z AUTO 00000KT 9999 NCD 10/06 Q1022='
    },
    {
      airport: 'ESOW',
      wx: '162050Z AUTO 16003KT 9999 NCD 13/06 Q1024='
    },
    { airport: 'ESPA', wx: '162050Z 14003KT CAVOK 08/03 Q1023=' },
    {
      airport: 'ESPE',
      wx: '162050Z AUTO 10003KT 9999 BKN092/// 12/06 Q1022='
    },
    { airport: 'ESSA', wx: '162050Z 19005KT CAVOK 13/06 Q1024 NOSIG=' },
    {
      airport: 'ESSB',
      wx: '162050Z AUTO 18002KT 9999 NCD 12/07 Q1024='
    },
    {
      airport: 'ESSD',
      wx: '162050Z AUTO 18006KT 9999 NCD 16/06 Q1023='
    },
    { airport: 'ESSL', wx: '162050Z 10006KT CAVOK 11/03 Q1023=' },
    {
      airport: 'ESSP',
      wx: '162050Z AUTO 14003KT 9999 NCD 09/04 Q1024='
    },
    {
      airport: 'ESST',
      wx: '162050Z AUTO 10002KT 9999 NCD 13/08 Q1022='
    },
    {
      airport: 'ESSV',
      wx: '162050Z AUTO 11007KT 9999 NCD 11/04 Q1024='
    },
    { airport: 'ESTA', wx: '162050Z 10016KT CAVOK 14/03 Q1018=' },
    {
      airport: 'ESTL',
      wx: '162050Z AUTO 12006KT 9999 NCD 13/04 Q1018='
    },
    {
      airport: 'ESUP',
      wx: '162050Z AUTO 15003KT 9999 SCT088/// 10/02 Q1021='
    },
    {
      airport: 'ESUT',
      wx: '162050Z AUTO 12001KT 9999 NCD 04/02 Q1022='
    },
    { airport: '', wx: 'Last updated Thu May 16 20:56:01 UTC 2024' },
    {
      airport: 'ENAL',
      wx: '162050Z 04007KT 010V080 CAVOK 13/07 Q1018='
    },
    {
      airport: 'ENAN',
      wx: '162050Z AUTO 10005KT 9999 NCD 05/03 Q1019='
    },
    {
      airport: 'ENAT',
      wx: '162020Z 32004KT CAVOK 06/03 Q1022 RMK WIND 700FT VRB02KT='
    },
    {
      airport: 'ENBL',
      wx: '162020Z AUTO VRB02KT 9999 NCD 16/04 Q1019='
    },
    { airport: 'ENBN', wx: '162020Z 04009KT CAVOK 17/07 Q1019=' },
    { airport: 'ENBO', wx: '162050Z 11012KT CAVOK 13/08 Q1020 NOSIG=' },
    {
      airport: 'ENBR',
      wx: '162050Z 13005KT CAVOK 18/05 Q1018 RMK WIND 1200FT 15012KT='
    },
    { airport: 'ENCN', wx: '162050Z 05006KT CAVOK 14/06 Q1018=' },
    {
      airport: 'ENDU',
      wx: '162050Z VRB01KT 9999 FEW050 BKN080 09/02 Q1019 RMK WIND 1100FT 11004KT WIND 2200FT 18012KT='
    },
    {
      airport: 'ENEV',
      wx: '162020Z 22004KT CAVOK 11/04 Q1020 NOSIG RMK WIND 1400FT 16008KT='
    },
    {
      airport: 'ENFB',
      wx: '162020Z AUTO 12017KT CAVOK 18/05 Q1017 W///S2='
    },
    {
      airport: 'ENFL',
      wx: '162020Z AUTO 17008KT 9999NDV NCD 16/10 Q1018='
    },
    { airport: 'ENGM', wx: '162050Z 11003KT CAVOK 17/03 Q1021 NOSIG=' },
    {
      airport: 'ENHD',
      wx: '162050Z AUTO 09006KT 9999 NCD 17/03 Q1017='
    },
    {
      airport: 'ENKB',
      wx: '162020Z 28005KT CAVOK 16/07 Q1018 RMK WIND 745FT 32003KT='
    },
    {
      airport: 'ENKR',
      wx: '162020Z 00000KT 9999 BKN028 04/M00 Q1023 RMK WIND 731FT 00000KT='
    },
    { airport: 'ENML', wx: '162020Z 03006KT CAVOK 15/11 Q1018=' },
    {
      airport: 'ENMS',
      wx: '162020Z AUTO VRB02KT 9999 NCD 12/06 Q1020 RMK WIND 412FT 26003KT='
    },
    { airport: 'ENOL', wx: '162020Z 25003KT CAVOK 12/10 Q1018 NOSIG=' },
    {
      airport: 'ENOV',
      wx: '162020Z 24003KT CAVOK 15/08 Q1018 RMK WIND RWY24 22003KT WIND 2090FT 13005KT='
    },
    {
      airport: 'ENRA',
      wx: '162020Z AUTO 32007KT 9999 NCD 11/04 Q1021='
    },
    {
      airport: 'ENRM',
      wx: '162020Z AUTO 04005KT 020V080 9999 NCD 16/06 Q1017='
    },
    {
      airport: 'ENRO',
      wx: '162050Z AUTO 20004KT 9999 NCD 14/05 Q1020='
    },
    {
      airport: 'ENRS',
      wx: '162020Z AUTO 20009KT 9999 NCD 12/07 Q1019='
    },
    {
      airport: 'ENRY',
      wx: '162050Z AUTO 10007KT 9999 NCD 17/04 Q1020='
    },
    {
      airport: 'ENSB',
      wx: '162050Z 29008KT 9999 FEW030 M02/M09 Q1025 RMK WIND 1400FT 28009KT='
    },
    {
      airport: 'ENTC',
      wx: '162050Z 02009KT 9999 BKN054 06/02 Q1020 NOSIG RMK WIND 2600FT 19016KT='
    },
    {
      airport: 'ENTO',
      wx: '162050Z 05003KT 010V090 CAVOK 17/06 Q1019 NOSIG='
    },
    {
      airport: 'ENVA',
      wx: '162050Z VRB02KT CAVOK 17/10 Q1017 RMK WIND 670FT 28003KT='
    },
    {
      airport: 'ENVD',
      wx: '162020Z VRB02KT 9999 FEW010 BKN021 03/M01 Q1023='
    },
    { airport: 'ENZV', wx: '162050Z 11004KT CAVOK 19/02 Q1017=' },
    {
      airport: 'ENSD',
      wx: '162020Z AUTO 21002KT 9999 NCD 18/08 Q1018 RMK WIND RWY 26 VRB02KT WIND 1140FT 17007KT='
    },
    {
      airport: 'ENSG',
      wx: '162020Z AUTO 00000KT 9999 BKN068/// 13/03 Q1020 RMK WIND 3806FT 15013KT='
    },
    {
      airport: 'ENSK',
      wx: '162020Z AUTO 00000KT 9999 OVC090/// 11/06 Q1019='
    },
    {
      airport: 'ENSR',
      wx: '162020Z AUTO 00000KT 9999 OVC062/// 06/02 Q1021 RMK WIND RWY 32 VRB01KT WIND 1119FT 07008KT='
    },
    {
      airport: 'ENSH',
      wx: '162020Z 00000KT CAVOK 11/06 Q1019 RMK WIND 0150FT /////KT='
    },
    { airport: 'ENLK', wx: '162020Z VRB02KT CAVOK 11/07 Q1019=' },
    {
      airport: 'ENHF',
      wx: '162020Z 02006KT 9999 BKN023 04/00 Q1022 RMK WIND 1254FT 08007KT='
    },
    {
      airport: 'ENNA',
      wx: '162020Z AUTO 34005KT 9999 BKN039/// OVC094/// 04/01 Q1023 RMK WIND 1800FT 08005KT='
    },
    {
      airport: 'ENNM',
      wx: '162020Z AUTO VRB02KT 9999 NCD 16/09 Q1017='
    },
    { airport: '', wx: 'Last updated Thu May 16 20:56:01 UTC 2024' },
    {
      airport: 'EFET',
      wx: '162050Z AUTO 11003KT 060V160 CAVOK 05/00 Q1020='
    },
    { airport: 'EFIV', wx: '162050Z AUTO 25002KT CAVOK 04/00 Q1022=' },
    { airport: 'EFHK', wx: '162050Z 29009KT CAVOK 18/07 Q1022 NOSIG=' },
    { airport: 'EFJY', wx: '162050Z AUTO 32002KT CAVOK 13/07 Q1022=' },
    { airport: 'EFKE', wx: '162050Z AUTO VRB01KT CAVOK 04/01 Q1023=' },
    { airport: 'EFKI', wx: '162050Z AUTO 08001KT CAVOK 05/02 Q1022=' },
    { airport: 'EFKK', wx: '162050Z AUTO VRB01KT CAVOK 09/04 Q1023=' },
    { airport: 'EFKS', wx: '162050Z AUTO VRB02KT CAVOK 01/M01 Q1023=' },
    { airport: 'EFKT', wx: '162050Z 18001KT CAVOK 07/00 Q1021=' },
    { airport: 'EFKU', wx: '162050Z AUTO 31004KT CAVOK 10/07 Q1021=' },
    {
      airport: 'EFMA',
      wx: '162050Z AUTO 23004KT 200V280 CAVOK 14/06 Q1024='
    },
    ... 24 more items
  ],
  taf: [
    { airport: '', wx: 'Last updated Thu May 16 21:00:01 UTC 2024' },
    { airport: 'ESDF', wx: '161730Z 1618/1622 09015KT CAVOK=' },
    { airport: 'ESGG', wx: '162030Z 1621/1721 13008KT CAVOK=' },
    { airport: 'ESGJ', wx: '162030Z 1621/1701 11007KT CAVOK=' },
    { airport: 'ESGT', wx: '161430Z 1615/1619 12010KT CAVOK=' },
    {
      airport: 'ESKN',
      wx: '162030Z 1621/1721 VRB02KT CAVOK BECMG 1707/1709 16010KT='
    },
    {
      airport: 'ESMK',
      wx: '161417Z 1615/1619 10014KT CAVOK TEMPO 1615/1619 09016G28KT='
    },
    { airport: 'ESMQ', wx: '161430Z 1615/1619 10010KT CAVOK=' },
    {
      airport: 'ESMS',
      wx: '162017Z 1621/1721 09012KT CAVOK TEMPO 1708/1718 10018G30KT='
    },
    {
      airport: 'ESMT',
      wx: '161417Z 1615/1619 10015KT CAVOK TEMPO 1615/1618 12016G28KT='
    },
    { airport: 'ESMX', wx: '162030Z 1621/1701 07005KT CAVOK=' },
    { airport: 'ESNG', wx: '161730Z 1618/1621 26005KT CAVOK=' },
    {
      airport: 'ESNK',
      wx: '161430Z 1615/1618 18010KT CAVOK BECMG 1616/1618 VRB02KT='
    },
    { airport: 'ESNN', wx: '162030Z 1621/1701 VRB02KT CAVOK=' },
    { airport: 'ESNO', wx: '161730Z 1618/1622 11008KT CAVOK=' },
    { airport: 'ESNQ', wx: '161730Z 1618/1621 22008KT CAVOK=' },
    { airport: 'ESNS', wx: '161730Z 1618/1622 12007KT CAVOK=' },
    { airport: 'ESNU', wx: '162030Z 1621/1706 05005KT CAVOK=' },
    { airport: 'ESNZ', wx: '161730Z 1618/1622 12007KT CAVOK=' },
    { airport: 'ESNX', wx: '161430Z 1615/1619 VRB03KT CAVOK=' },
    {
      airport: 'ESOE',
      wx: '162030Z 1621/1701 13010KT CAVOK BECMG 1623/1701 03004KT='
    },
    { airport: 'ESPA', wx: '162030Z 1621/1623 12003KT CAVOK=' },
    { airport: 'ESSA', wx: '162030Z 1621/1721 20005KT CAVOK=' },
    { airport: 'ESSB', wx: '161730Z 1618/1621 15007KT CAVOK=' },
    { airport: 'ESSL', wx: '161930Z 1620/1622 12012KT CAVOK=' },
    { airport: 'ESSV', wx: '161730Z 1618/1620 16008KT CAVOK=' },
    {
      airport: 'ESTA',
      wx: '161710Z 1618/1622 11025KT CAVOK BECMG 1618/1621 09015KT='
    },
    { airport: '', wx: 'Last updated Thu May 16 21:00:01 UTC 2024' },
    {
      airport: 'ENAL',
      wx: '161400Z 1615/1622 04010KT CAVOK BECMG 1619/1621 VRB05KT='
    },
    {
      airport: 'ENAN',
      wx: 'AMD 162001Z 1620/1718 17005KT 9999 SCT045='
    },
    { airport: 'ENAT', wx: '161400Z 1615/1622 33006KT 9999 BKN030=' },
    { airport: 'ENBL', wx: '161400Z 1615/1622 14008KT CAVOK=' },
    { airport: 'ENBN', wx: '162000Z 1621/1706 04008KT CAVOK=' },
    {
      airport: 'ENBO',
      wx: '161700Z 1618/1718 10012KT 9999 FEW030 SCT060 BECMG 1712/1714 27009KT='
    },
    {
      airport: 'ENBR',
      wx: '161700Z 1618/1718 14010KT CAVOK BECMG 1620/1622 VRB05KT BECMG 1709/1711 18010KT BECMG 1715/1718 30008KT='
    },
    {
      airport: 'ENCN',
      wx: '161400Z 1615/1622 09015KT CAVOK BECMG 1618/1620 05005KT='
    },
    {
      airport: 'ENDU',
      wx: '161700Z 1618/1718 VRB03KT 9999 FEW050 SCT070 BECMG 1706/1708 23010KT='
    },
    {
      airport: 'ENEV',
      wx: '161700Z 1618/1718 20008KT 9999 FEW035 SCT080='
    },
    { airport: 'ENFL', wx: '162000Z 1621/1706 09008KT CAVOK=' },
    {
      airport: 'ENGM',
      wx: '161700Z 1618/1718 12010KT CAVOK BECMG 1620/1622 VRB05KT BECMG 1709/1711 18010KT='
    },
    {
      airport: 'ENHD',
      wx: '161100Z 1612/1620 10015KT CAVOK PROB30 1615/1620 16008KT='
    },
    { airport: 'ENKB', wx: '161400Z 1615/1622 VRB05KT CAVOK=' },
    {
      airport: 'ENKR',
      wx: '162000Z 1621/1706 VRB03KT 9999 FEW015 BKN025 TEMPO 1703/1706 BKN012='
    },
    { airport: 'ENML', wx: '161400Z 1615/1623 VRB05KT CAVOK=' },
    { airport: 'ENMS', wx: '161400Z 1615/1621 35006KT CAVOK=' },
    {
      airport: 'ENOL',
      wx: '161700Z 1618/1718 28008KT CAVOK BECMG 1622/1623 12010KT BECMG 1708/1710 32008KT='
    },
    { airport: 'ENOV', wx: '161400Z 1615/1622 25007KT CAVOK=' },
    { airport: 'ENRA', wx: '161400Z 1615/1622 34003KT CAVOK=' },
    { airport: 'ENRM', wx: '161400Z 1615/1622 04007KT CAVOK=' },
    { airport: 'ENRO', wx: '161100Z 1612/1618 18010KT CAVOK=' },
    {
      airport: 'ENRS',
      wx: '161100Z 1612/1620 11012KT 9999 FEW008 SCT012 BECMG 1614/1617 21015KT='
    },
    {
      airport: 'ENRY',
      wx: '161700Z 1618/1718 10005KT CAVOK BECMG 1711/1713 20010KT BECMG 1716/1718 VRB05KT='
    },
    { airport: 'ENSB', wx: '161700Z 1618/1718 27010KT 9999 SCT040=' },
    { airport: 'ENSO', wx: '161100Z 1612/1618 12012KT CAVOK=' },
    { airport: 'ENST', wx: 'CNL 161932Z 1619/1621 CNL=' },
    {
      airport: 'ENTC',
      wx: '161700Z 1618/1718 02010KT 9999 SCT060 BECMG 1706/1709 19008KT='
    },
    {
      airport: 'ENTO',
      wx: '161700Z 1618/1718 08005KT CAVOK TEMPO 1712/1715 20010KT='
    },
    {
      airport: 'ENVA',
      wx: '161700Z 1618/1718 26010KT CAVOK BECMG 1618/1620 14007KT BECMG 1708/1710 26010KT='
    },
    {
      airport: 'ENVD',
      wx: 'AMD 161604Z 1616/1623 09008KT 9999 FEW010 BKN020='
    },
    {
      airport: 'ENZV',
      wx: 'AMD 161937Z 1619/1718 12005KT CAVOK BECMG 1706/1709 14015KT BECMG 1715/1718 32008KT='
    },
    { airport: 'ENSD', wx: '161400Z 1615/1621 VRB05KT CAVOK=' },
    { airport: 'ENSG', wx: '161400Z 1615/1621 07005KT CAVOK=' },
    {
      airport: 'ENSK',
      wx: 'AMD 161534Z 1615/1620 15008KT 9999 FEW050 BKN070='
    },
    {
      airport: 'ENSR',
      wx: '161100Z 1612/1619 35005KT 9999 FEW020 BKN030='
    },
    {
      airport: 'ENSH',
      wx: '161400Z 1615/1622 14005KT 9999 FEW020 BKN060='
    },
    { airport: 'ENLK', wx: 'AMD 161916Z 1619/1622 19005KT CAVOK=' },
    {
      airport: 'ENHF',
      wx: '162000Z 1621/1706 07008KT 9999 FEW010 BKN025 TEMPO 1622/1706 BKN012='
    },
    {
      airport: 'ENNA',
      wx: '161700Z 1618/1718 02008KT 9999 FEW015 BKN025 TEMPO 1622/1702 RA FEW004 BKN009 TEMPO 1702/1708 4000 RADZ BKN004 BECMG 1710/1713 18012KT='
    },
    { airport: 'ENNM', wx: 'AMD 161629Z 1616/1621 VRB05KT CAVOK=' },
    { airport: '', wx: 'Last updated Thu May 16 21:00:01 UTC 2024' },
    {
      airport: 'EFHK',
      wx: '162030Z 1621/1721 29009KT CAVOK BECMG 1710/1712 16010KT='
    },
    { airport: 'EFJY', wx: '162030Z 1621/1721 32002KT CAVOK=' },
    { airport: 'EFKE', wx: '161738Z 1618/1621 19004KT CAVOK=' },
    { airport: 'EFKI', wx: '161437Z 1615/1618 34006KT CAVOK=' },
    { airport: 'EFKK', wx: '162036Z 1621/1624 27002KT CAVOK=' },
    { airport: 'EFKT', wx: '162036Z 1621/1624 VRB02KT CAVOK=' },
    { airport: 'EFKU', wx: '162021Z 1621/1721 30003KT CAVOK=' },
    { airport: 'EFMA', wx: '162030Z 1621/1706 22004KT CAVOK=' },
    { airport: 'EFOU', wx: '162036Z 1621/1721 33004KT CAVOK=' },
    { airport: 'EFPO', wx: '162030Z 1621/1624 VRB02KT CAVOK=' },
    {
      airport: 'EFRO',
      wx: '162036Z 1621/1721 15004KT CAVOK BECMG 1623/1701 22010KT='
    },
    { airport: 'EFTP', wx: '162030Z 1621/1721 28004KT CAVOK=' },
    {
      airport: 'EFTU',
      wx: '162030Z 1621/1721 25005KT CAVOK BECMG 1713/1715 31010KT='
    },
    {
      airport: 'EFVA',
      wx: '162021Z 1621/1721 VRB01KT CAVOK BECMG 1711/1713 26010KT BECMG 1716/1718 20005KT='
    },
    { airport: '', wx: 'Last updated Thu May 16 21:00:01 UTC 2024' },
    {
      airport: 'EKAH',
      wx: '161723Z 1618/1718 10012KT CAVOK TEMPO 1618/1623 09018G30KT TEMPO 1709/1718 10016G28KT='
    },
    {
      airport: 'EKBI',
      wx: '161723Z 1618/1718 09012KT CAVOK TEMPO 1618/1620 08018G30KT TEMPO 1710/1718 10016G28KT='
    },
    {
      airport: 'EKCH',
      wx: '161723Z 1618/1718 09015KT CAVOK TEMPO 1709/1718 11015G25KT='
    },
    {
      airport: 'EKEB',
      wx: '161725Z 1618/1622 08015KT CAVOK TEMPO 1618/1620 10018G30KT='
    },
    {
      airport: 'EKKA',
      wx: '162005Z 1621/1721 10012KT 9999 FEW200 TEMPO 1710/1717 10015G25KT='
    },
    { airport: 'EKRK', wx: '162022Z 1621/1706 09012KT CAVOK=' },
    {
      airport: 'EKRN',
      wx: '162005Z 1621/1706 09015KT 9999 FEW200 TEMPO 1622/1706 10015G25KT='
    },
    {
      airport: 'EKSB',
      wx: '161756Z 1618/1622 08015KT CAVOK TEMPO 1618/1622 09016G28KT='
    },
    {
      airport: 'EKSP',
      wx: '162005Z 1621/1721 09012KT 9999 FEW100 TEMPO 1709/1718 10015G28KT='
    },
    {
      airport: 'EKVG',
      wx: 'AMD 161617Z 1616/1621 15007KT 9999 FEW014 BKN020 TEMPO 1616/1621 2000 BR OVC002 BECMG 1616/1618 32010KT='
    },
    {
      airport: 'EKYT',
      wx: '162005Z 1621/1721 11014KT 9999 FEW200 TEMPO 1709/1716 12015G28KT='
    },
    { airport: '', wx: 'Last updated Thu May 16 21:00:01 UTC 2024' },
    {
      airport: 'BIAR',
      wx: '161953Z 1621/1721 17008KT 9999 -SHRA FEW025 BKN045 TX09/1715Z TN03/1706Z='
    },
    {
      airport: 'BIEG',
      wx: '161953Z 1621/1721 20007KT 9999 SCT020 BKN030 TX10/1712Z TN01/1703Z='
    },
    {
      airport: 'BIHN',
      wx: '161605Z 1617/1620 23012KT 9999 FEW020 SCT040='
    },
    ... 4 more items
  ]
}
